{
    "links": {
        "self": "http://www.neowsapp.com/rest/v1/neo/3989649?api_key=iIulBulltgU6a56xZRHN4H3l9WmuAYTsLGpBGhQ2"
    },
    "id": "3989649",
    "neo_reference_id": "3989649",
    "name": "(2020 CE1)",
    "designation": "2020 CE1",
    "nasa_jpl_url": "http://ssd.jpl.nasa.gov/sbdb.cgi?sstr=3989649",
    "absolute_magnitude_h": 25.663,
    "estimated_diameter": {
        "kilometers": {
            "estimated_diameter_min": 0.0195864161,
            "estimated_diameter_max": 0.0437965578
        },
        "meters": {
            "estimated_diameter_min": 19.5864161022,
            "estimated_diameter_max": 43.7965578402
        },
        "miles": {
            "estimated_diameter_min": 0.012170431,
            "estimated_diameter_max": 0.0272139109
        },
        "feet": {
            "estimated_diameter_min": 64.2598974049,
            "estimated_diameter_max": 143.6894988245
        }
    },
    "is_potentially_hazardous_asteroid": false,
    "close_approach_data": [
        {
            "close_approach_date": "1975-02-22",
            "close_approach_date_full": "1975-Feb-22 21:03",
            "epoch_date_close_approach": 162334980000,
            "relative_velocity": {
                "kilometers_per_second": "28.9399067778",
                "kilometers_per_hour": "104183.6644000937",
                "miles_per_hour": "64735.6774712693"
            },
            "miss_distance": {
                "astronomical": "0.4809706363",
                "lunar": "187.0975775207",
                "kilometers": "71952182.723024681",
                "miles": "44709013.1595993578"
            },
            "orbiting_body": "Earth"
        },
        {
            "close_approach_date": "2007-01-19",
            "close_approach_date_full": "2007-Jan-19 19:19",
            "epoch_date_close_approach": 1169234340000,
            "relative_velocity": {
                "kilometers_per_second": "4.9916036258",
                "kilometers_per_hour": "17969.7730528571",
                "miles_per_hour": "11165.7181505378"
            },
            "miss_distance": {
                "astronomical": "1.7349876216",
                "lunar": "674.9101848024",
                "kilometers": "259550452.667725992",
                "miles": "161277172.7658510096"
            },
            "orbiting_body": "Juptr"
        },
        {
            "close_approach_date": "2020-01-27",
            "close_approach_date_full": "2020-Jan-27 17:34",
            "epoch_date_close_approach": 1580146440000,
            "relative_velocity": {
                "kilometers_per_second": "15.5580279396",
                "kilometers_per_hour": "56008.9005824387",
                "miles_per_hour": "34801.7526980159"
            },
            "miss_distance": {
                "astronomical": "0.0318838134",
                "lunar": "12.4028034126",
                "kilometers": "4769750.572117458",
                "miles": "2963785.5729506004"
            },
            "orbiting_body": "Earth"
        },
        {
            "close_approach_date": "2031-03-15",
            "close_approach_date_full": "2031-Mar-15 13:51",
            "epoch_date_close_approach": 1931349060000,
            "relative_velocity": {
                "kilometers_per_second": "8.8586640109",
                "kilometers_per_hour": "31891.1904394068",
                "miles_per_hour": "19815.9455260859"
            },
            "miss_distance": {
                "astronomical": "0.1300039343",
                "lunar": "50.5715304427",
                "kilometers": "19448311.662899941",
                "miles": "12084620.4960275458"
            },
            "orbiting_body": "Venus"
        },
        {
            "close_approach_date": "2158-09-22",
            "close_approach_date_full": "2158-Sep-22 09:51",
            "epoch_date_close_approach": 5955587460000,
            "relative_velocity": {
                "kilometers_per_second": "22.7823246258",
                "kilometers_per_hour": "82016.3686528372",
                "miles_per_hour": "50961.7819554254"
            },
            "miss_distance": {
                "astronomical": "0.3314822601",
                "lunar": "128.9465991789",
                "kilometers": "49589040.053745987",
                "miles": "30813200.6622971406"
            },
            "orbiting_body": "Earth"
        }
    ],
    "orbital_data": {
        "orbit_id": "7",
        "orbit_determination_date": "2020-04-13 06:09:56",
        "first_observation_date": "2020-02-02",
        "last_observation_date": "2020-02-27",
        "data_arc_in_days": 25,
        "observations_used": 34,
        "orbit_uncertainty": "6",
        "minimum_orbit_intersection": ".00980539",
        "jupiter_tisserand_invariant": "3.180",
        "epoch_osculation": "2459000.5",
        "eccentricity": ".6555317128229909",
        "semi_major_axis": "2.409248675704994",
        "inclination": "6.848774356331472",
        "ascending_node_longitude": "308.5551498917775",
        "orbital_period": "1365.9061809148",
        "perihelion_distance": ".8299097647035766",
        "perihelion_argument": "122.1368227124433",
        "aphelion_distance": "3.988587586706411",
        "perihelion_time": "2458839.310494680804",
        "mean_anomaly": "42.48331453925088",
        "mean_motion": ".2635612936160037",
        "equinox": "J2000",
        "orbit_class": {
            "orbit_class_type": "APO",
            "orbit_class_description": "Near-Earth asteroid orbits which cross the Earth’s orbit similar to that of 1862 Apollo",
            "orbit_class_range": "a (semi-major axis) > 1.0 AU; q (perihelion) < 1.017 AU"
        }
    },
    "is_sentry_object": false
}